QIANFAN-33              
1 61566U 24185Q   25363.24037872  .00000538  00000+0  37902-3 0  9995
2 61566  88.9794  76.9723 0005025 272.3322  87.7279 13.96565628 71467
QIANFAN-34              
1 61567U 24185R   25363.20947763  .00000623  00000+0  39774-3 0  9995
2 61567  88.9769  76.5174 0003207 281.0923  78.9897 14.02321748 71661
QIANFAN-35              
1 61568U 24185S   25363.23483400  .00001152  00000+0  45886-3 0  9991
2 61568  88.9795  74.9472 0005283 213.9786 146.1071 14.27998330 72534
QIANFAN-36              
1 61569U 24185T   25363.27566667  .00000230  00000+0  31401-3 0  9997
2 61569  88.9780  79.3260 0005701  13.9120 346.2190 13.55594227 70167
QIANFAN-37              
1 62238U 24232B   25363.13853651  .00000098  00000+0  13325-3 0  9998
2 62238  89.0005  39.6740 0002508  86.6961 273.4477 13.50980771101383
QIANFAN-38              
1 62239U 24232C   25363.23727927  .00000083  00000+0  10966-3 0  9998
2 62239  89.0012  39.5808 0015925 142.2604 217.9668 13.50978496101450
QIANFAN-39              
1 62240U 24232D   25363.27176036  .00000421  00000+0  17203-3 0  9990
2 62240  89.0003  35.4180 0017100  32.1369 328.0863 14.25403249103749
QIANFAN-40              
1 62241U 24232E   25363.19613238  .00000086  00000+0  11433-3 0  9998
2 62241  89.0039  39.1741 0014751 149.2723 210.9295 13.50978535101812
